IRIDIUM 155             
1 43573U 18061E   25137.66313127  .00000050  00000+0  10666-4 0  9992
2 43573  86.4003 221.9150 0002435 101.3191 258.8278 14.34217898356668
IRIDIUM 154             
1 43574U 18061F   25138.20225125  .00000143  00000+0  44171-4 0  9995
2 43574  86.4008 221.8040 0002318  95.7898 264.3562 14.34218075356791
IRIDIUM 163             
1 43575U 18061G   25138.18322302  .00000022  00000+0  69989-6 0  9990
2 43575  86.4007 221.7398 0002054  98.9784 261.1644 14.34217726356767
IRIDIUM 156             
1 43576U 18061H   25137.52993709  .00000065  00000+0  16159-4 0  9999
2 43576  86.4006 222.0193 0002606 100.8525 259.2964 14.34217955356669
IRIDIUM 164             
1 43577U 18061J   25137.30160352 -.00000029  00000+0 -17469-4 0  9993
2 43577  86.4009 222.1486 0002372  90.5004 269.6464 14.34217340356675
IRIDIUM 159             
1 43578U 18061K   25137.68850120  .00000042  00000+0  80733-5 0  9992
2 43578  86.4007 221.9323 0002139  90.2421 269.9020 14.34217925356694
IRIDIUM 180             
1 43922U 19002A   25137.75776530 -.00000004  00000+0 -86301-5 0  9998
2 43922  86.3986 158.8900 0002128  93.5149 266.6290 14.34217233332310
IRIDIUM 176             
1 43923U 19002B   25138.13068454  .00000470  00000+0  70694-4 0  9993
2 43923  86.6108 158.7303 0002275 107.2603 252.8863 14.72250261341129
IRIDIUM 168             
1 43924U 19002C   25137.47234817 -.00000003  00000+0 -80869-5 0  9998
2 43924  86.3990 159.0751 0002205  92.1668 267.9780 14.34217215332252
IRIDIUM 173             
1 43925U 19002D   25138.15734814  .00000025  00000+0  18567-5 0  9995
2 43925  86.3981 158.6945 0002222  95.5163 264.6286 14.34217447332341
IRIDIUM 169             
1 43926U 19002E   25138.17546826  .00000392  00000+0  12170-3 0  9991
2 43926  86.4271 190.2586 0002956 123.1438 237.0044 14.38608053333433
IRIDIUM 172             
1 43927U 19002F   25137.80216235 -.00000095  00000+0 -41119-4 0  9997
2 43927  86.3986 158.8492 0001910  89.3981 270.7433 14.34216623332290
IRIDIUM 175             
1 43928U 19002G   25137.64980986  .00000492  00000+0  74114-4 0  9991
2 43928  86.1478 113.1859 0003482  96.0934 264.0679 14.72244666341046
IRIDIUM 171             
1 43929U 19002H   25137.78313596 -.00000028  00000+0 -16897-4 0  9995
2 43929  86.3995 159.1196 0002580  89.5846 270.5645 14.34217013332289
IRIDIUM 170             
1 43930U 19002J   25138.13687927  .00000495  00000+0  74578-4 0  9995
2 43930  86.6107 158.7328 0002735  99.2206 260.9321 14.72254662341132
IRIDIUM 167             
1 43931U 19002K   25138.12563647 -.00000034  00000+0 -19256-4 0  9990
2 43931  86.3986 158.7332 0002659  94.7510 265.3989 14.34217064332337
IRIDIUM 181             
1 56726U 23068S   25138.20624526  .00000462  00000+0  13116-3 0  9997
2 56726  86.4545 221.7449 0002753  84.3043 275.8472 14.43310197105462
IRIDIUM 177             
1 56727U 23068T   25138.12358585  .00000544  00000+0  68080-4 0  9990
2 56727  86.1975 156.3960 0002769  90.4611 269.6927 14.80224027107920
IRIDIUM 174             
1 56728U 23068U   25138.12459328  .00000548  00000+0  82901-4 0  9990
2 56728  86.6115 158.8446 0002005  93.5080 266.6366 14.72267934107890
IRIDIUM 178             
1 56729U 23068V   25137.63947485  .00001535  00000+0  19862-3 0  9994
2 56729  86.6592 190.5755 0002223  89.1428 271.0048 14.80230111107854
IRIDIUM 179             
1 56730U 23068W   25137.90451458  .00001510  00000+0  19524-3 0  9994
2 56730  86.6834 198.2434 0002602  97.1462 263.0055 14.80236259107894
